{
  "type": "FeatureCollection",
  "features": [
    {
      "type": "Feature",
      "properties": {
        "norad_id": 30515,
        "name": "FENGYUN 1C DEB",
        "group": "fengyun-1c-debris",
        "lat": -45.471518697845866,
        "lon": -128.38332622591062,
        "alt_km": 1202.9892390490959,
        "timestamp": "2025-12-12T16:50:33.421565+00:00",
        "meta_object_name": "FENGYUN 1C DEB",
        "meta_object_id": "1999-025AJD",
        "meta_epoch": "2025-12-11T14:47:57.625152",
        "meta_mean_motion": 13.63784252,
        "meta_eccentricity": 0.04968962,
        "meta_inclination": 98.5089,
        "meta_ra_of_asc_node": 221.9088,
        "meta_arg_of_pericenter": 77.6131,
        "meta_mean_anomaly": 316.5851,
        "meta_ephemeris_type": 0,
        "meta_classification_type": "U",
        "meta_norad_cat_id": 30515,
        "meta_element_set_no": 999,
        "meta_rev_at_epoch": 93315,
        "meta_bstar": 0.0014137835,
        "meta_mean_motion_dot": 2.571e-05,
        "meta_mean_motion_ddot": 0,
        "tle_line1": "1 30515U 99025AJD 25345.61663918  .00002571  00000+0  14138-2 0  9991",
        "tle_line2": "2 30515  98.5089 221.9088 0496896  77.6131 316.5851 13.63784252933153"
      },
      "geometry": {
        "type": "Point",
        "coordinates": [
          -128.38332622591062,
          -45.471518697845866
        ]
      }
    },
    {
      "type": "Feature",
      "properties": {
        "norad_id": 30516,
        "name": "FENGYUN 1C DEB",
        "group": "fengyun-1c-debris",
        "lat": 80.91870141903816,
        "lon": -11.999280038963203,
        "alt_km": 752.7220802035436,
        "timestamp": "2025-12-12T16:50:33.421575+00:00",
        "meta_object_name": "FENGYUN 1C DEB",
        "meta_object_id": "1999-025AJE",
        "meta_epoch": "2025-12-12T00:00:52.254720",
        "meta_mean_motion": 14.41325258,
        "meta_eccentricity": 0.0009061,
        "meta_inclination": 98.8566,
        "meta_ra_of_asc_node": 89.9868,
        "meta_arg_of_pericenter": 293.2873,
        "meta_mean_anomaly": 122.5129,
        "meta_ephemeris_type": 0,
        "meta_classification_type": "U",
        "meta_norad_cat_id": 30516,
        "meta_element_set_no": 999,
        "meta_rev_at_epoch": 97704,
        "meta_bstar": 0.0033465,
        "meta_mean_motion_dot": 0.00010802,
        "meta_mean_motion_ddot": 0,
        "tle_line1": "1 30516U 99025AJE 25346.00060480  .00010802  00000+0  33465-2 0  9991",
        "tle_line2": "2 30516  98.8566  89.9868 0009061 293.2873 122.5129 14.41325258977041"
      },
      "geometry": {
        "type": "Point",
        "coordinates": [
          -11.999280038963203,
          80.91870141903816
        ]
      }
    },
    {
      "type": "Feature",
      "properties": {
        "norad_id": 30520,
        "name": "FENGYUN 1C DEB",
        "group": "fengyun-1c-debris",
        "lat": -26.093877689646508,
        "lon": -24.8091276417064,
        "alt_km": 542.826151934848,
        "timestamp": "2025-12-12T16:50:33.421585+00:00",
        "meta_object_name": "FENGYUN 1C DEB",
        "meta_object_id": "1999-025AJJ",
        "meta_epoch": "2025-12-12T00:04:47.185824",
        "meta_mean_motion": 15.14024282,
        "meta_eccentricity": 0.0070596,
        "meta_inclination": 98.7188,
        "meta_ra_of_asc_node": 158.7023,
        "meta_arg_of_pericenter": 102.4238,
        "meta_mean_anomaly": 258.4901,
        "meta_ephemeris_type": 0,
        "meta_classification_type": "U",
        "meta_norad_cat_id": 30520,
        "meta_element_set_no": 999,
        "meta_rev_at_epoch": 1030,
        "meta_bstar": 0.0014639,
        "meta_mean_motion_dot": 0.00028298,
        "meta_mean_motion_ddot": 0,
        "tle_line1": "1 30520U 99025AJJ 25346.00332391  .00028298  00000+0  14639-2 0  9999",
        "tle_line2": "2 30520  98.7188 158.7023 0070596 102.4238 258.4901 15.14024282 10308"
      },
      "geometry": {
        "type": "Point",
        "coordinates": [
          -24.8091276417064,
          -26.093877689646508
        ]
      }
    },
    {
      "type": "Feature",
      "properties": {
        "norad_id": 30521,
        "name": "FENGYUN 1C DEB",
        "group": "fengyun-1c-debris",
        "lat": 18.775928303867964,
        "lon": 118.84878136468284,
        "alt_km": 766.633977001683,
        "timestamp": "2025-12-12T16:50:33.421595+00:00",
        "meta_object_name": "FENGYUN 1C DEB",
        "meta_object_id": "1999-025AJK",
        "meta_epoch": "2025-12-12T01:55:59.936448",
        "meta_mean_motion": 14.5824301,
        "meta_eccentricity": 0.0135626,
        "meta_inclination": 98.9879,
        "meta_ra_of_asc_node": 121.2619,
        "meta_arg_of_pericenter": 245.7165,
        "meta_mean_anomaly": 112.9816,
        "meta_ephemeris_type": 0,
        "meta_classification_type": "U",
        "meta_norad_cat_id": 30521,
        "meta_element_set_no": 999,
        "meta_rev_at_epoch": 99572,
        "meta_bstar": 0.0012570438,
        "meta_mean_motion_dot": 6.535e-05,
        "meta_mean_motion_ddot": 0,
        "tle_line1": "1 30521U 99025AJK 25346.08055482  .00006535  00000+0  12570-2 0  9993",
        "tle_line2": "2 30521  98.9879 121.2619 0135626 245.7165 112.9816 14.58243010995726"
      },
      "geometry": {
        "type": "Point",
        "coordinates": [
          118.84878136468284,
          18.775928303867964
        ]
      }
    },
    {
      "type": "Feature",
      "properties": {
        "norad_id": 30523,
        "name": "FENGYUN 1C DEB",
        "group": "fengyun-1c-debris",
        "lat": -66.93782930998911,
        "lon": -14.484439607857215,
        "alt_km": 980.8905703242544,
        "timestamp": "2025-12-12T16:50:33.421605+00:00",
        "meta_object_name": "FENGYUN 1C DEB",
        "meta_object_id": "1999-025AJM",
        "meta_epoch": "2025-12-12T04:18:20.793312",
        "meta_mean_motion": 14.27928903,
        "meta_eccentricity": 0.02441312,
        "meta_inclination": 98.4658,
        "meta_ra_of_asc_node": 324.5326,
        "meta_arg_of_pericenter": 110.1788,
        "meta_mean_anomaly": 17.8218,
        "meta_ephemeris_type": 0,
        "meta_classification_type": "U",
        "meta_norad_cat_id": 30523,
        "meta_element_set_no": 999,
        "meta_rev_at_epoch": 98092,
        "meta_bstar": 0.00026349731,
        "meta_mean_motion_dot": 8.51e-06,
        "meta_mean_motion_ddot": 0,
        "tle_line1": "1 30523U 99025AJM 25346.17940733  .00000851  00000+0  26350-3 0  9994",
        "tle_line2": "2 30523  98.4658 324.5326 0244131 110.1788  17.8218 14.27928903980921"
      },
      "geometry": {
        "type": "Point",
        "coordinates": [
          -14.484439607857215,
          -66.93782930998911
        ]
      }
    },
    {
      "type": "Feature",
      "properties": {
        "norad_id": 30524,
        "name": "FENGYUN 1C DEB",
        "group": "fengyun-1c-debris",
        "lat": -74.46946777391081,
        "lon": -57.3625467979151,
        "alt_km": 777.559664668348,
        "timestamp": "2025-12-12T16:50:33.421615+00:00",
        "meta_object_name": "FENGYUN 1C DEB",
        "meta_object_id": "1999-025AJN",
        "meta_epoch": "2025-12-12T05:15:03.680640",
        "meta_mean_motion": 13.92186909,
        "meta_eccentricity": 0.02079118,
        "meta_inclination": 99.3091,
        "meta_ra_of_asc_node": 158.3248,
        "meta_arg_of_pericenter": 251.6807,
        "meta_mean_anomaly": 106.1636,
        "meta_ephemeris_type": 0,
        "meta_classification_type": "U",
        "meta_norad_cat_id": 30524,
        "meta_element_set_no": 999,
        "meta_rev_at_epoch": 93878,
        "meta_bstar": 0.0080325181,
        "meta_mean_motion_dot": 0.00012251,
        "meta_mean_motion_ddot": 0,
        "tle_line1": "1 30524U 99025AJN 25346.21879260  .00012251  00000+0  80325-2 0  9994",
        "tle_line2": "2 30524  99.3091 158.3248 0207911 251.6807 106.1636 13.92186909938783"
      },
      "geometry": {
        "type": "Point",
        "coordinates": [
          -57.3625467979151,
          -74.46946777391081
        ]
      }
    },
    {
      "type": "Feature",
      "properties": {
        "norad_id": 30525,
        "name": "FENGYUN 1C DEB",
        "group": "fengyun-1c-debris",
        "lat": 39.260657451600245,
        "lon": 58.91080445634245,
        "alt_km": 1251.7102888808495,
        "timestamp": "2025-12-12T16:50:33.421625+00:00",
        "meta_object_name": "FENGYUN 1C DEB",
        "meta_object_id": "1999-025AJP",
        "meta_epoch": "2025-12-11T15:23:44.239200",
        "meta_mean_motion": 13.58601953,
        "meta_eccentricity": 0.02937099,
        "meta_inclination": 98.6024,
        "meta_ra_of_asc_node": 230.8726,
        "meta_arg_of_pericenter": 312.3562,
        "meta_mean_anomaly": 45.3044,
        "meta_ephemeris_type": 0,
        "meta_classification_type": "U",
        "meta_norad_cat_id": 30525,
        "meta_element_set_no": 999,
        "meta_rev_at_epoch": 93102,
        "meta_bstar": 0.0022686039,
        "meta_mean_motion_dot": 2.156e-05,
        "meta_mean_motion_ddot": 0,
        "tle_line1": "1 30525U 99025AJP 25345.64148425  .00002156  00000+0  22686-2 0  9992",
        "tle_line2": "2 30525  98.6024 230.8726 0293709 312.3562  45.3044 13.58601953931022"
      },
      "geometry": {
        "type": "Point",
        "coordinates": [
          58.91080445634245,
          39.260657451600245
        ]
      }
    }
  ]
}